{
  "links" : {
    "next" : "https://api.nasa.gov/neo/rest/v1/feed?start_date=1996-06-23&end_date=1996-06-23&detailed=true&api_key=t0TVs3DtDT2H8Oy2Zy8m2eVrNsAVKAexjcZXUckd",
    "prev" : "https://api.nasa.gov/neo/rest/v1/feed?start_date=1996-06-21&end_date=1996-06-21&detailed=true&api_key=t0TVs3DtDT2H8Oy2Zy8m2eVrNsAVKAexjcZXUckd",
    "self" : "https://api.nasa.gov/neo/rest/v1/feed?start_date=1996-06-22&end_date=1996-06-22&detailed=true&api_key=t0TVs3DtDT2H8Oy2Zy8m2eVrNsAVKAexjcZXUckd"
  },
  "element_count" : 5,
  "near_earth_objects" : {
    "1996-06-22" : [ {
      "links" : {
        "self" : "https://api.nasa.gov/neo/rest/v1/neo/2052381?api_key=t0TVs3DtDT2H8Oy2Zy8m2eVrNsAVKAexjcZXUckd"
      },
      "neo_reference_id" : "2052381",
      "name" : "52381 (1993 HA)",
      "nasa_jpl_url" : "http://ssd.jpl.nasa.gov/sbdb.cgi?sstr=2052381",
      "absolute_magnitude_h" : 20.0,
      "estimated_diameter" : {
        "kilometers" : {
          "estimated_diameter_min" : 0.2658,
          "estimated_diameter_max" : 0.5943468684
        },
        "meters" : {
          "estimated_diameter_min" : 265.8,
          "estimated_diameter_max" : 594.3468684194
        },
        "miles" : {
          "estimated_diameter_min" : 0.1651604118,
          "estimated_diameter_max" : 0.369309908
        },
        "feet" : {
          "estimated_diameter_min" : 872.047272,
          "estimated_diameter_max" : 1949.9569797852
        }
      },
      "is_potentially_hazardous_asteroid" : false,
      "close_approach_data" : [ {
        "close_approach_date" : "1996-06-22",
        "epoch_date_close_approach" : 835426800000,
        "relative_velocity" : {
          "kilometers_per_second" : "6.5121485678",
          "kilometers_per_hour" : "23443.7348441792",
          "miles_per_hour" : "14567.0251313735"
        },
        "miss_distance" : {
          "astronomical" : "0.4749215792",
          "lunar" : "184.7444915771",
          "kilometers" : "71047256",
          "miles" : "44146720"
        },
        "orbiting_body" : "Earth"
      } ],
      "orbital_data" : {
        "orbit_id" : "83",
        "orbit_determination_date" : "2017-04-06 09:29:07",
        "orbit_uncertainty" : "0",
        "minimum_orbit_intersection" : ".168807",
        "jupiter_tisserand_invariant" : "5.043",
        "epoch_osculation" : "2458000.5",
        "eccentricity" : ".1440957653828074",
        "semi_major_axis" : "1.278285379913563",
        "inclination" : "7.725425258340326",
        "ascending_node_longitude" : "183.2874517224604",
        "orbital_period" : "527.8860185963384",
        "perihelion_distance" : "1.094089869717265",
        "perihelion_argument" : "263.8291491175739",
        "aphelion_distance" : "1.46248089010986",
        "perihelion_time" : "2457903.635738659172",
        "mean_anomaly" : "66.05807476284618",
        "mean_motion" : ".6819654003287464",
        "equinox" : "J2000"
      }
    }, {
      "links" : {
        "self" : "https://api.nasa.gov/neo/rest/v1/neo/3283835?api_key=t0TVs3DtDT2H8Oy2Zy8m2eVrNsAVKAexjcZXUckd"
      },
      "neo_reference_id" : "3283835",
      "name" : "(2005 NW44)",
      "nasa_jpl_url" : "http://ssd.jpl.nasa.gov/sbdb.cgi?sstr=3283835",
      "absolute_magnitude_h" : 20.4,
      "estimated_diameter" : {
        "kilometers" : {
          "estimated_diameter_min" : 0.2210828104,
          "estimated_diameter_max" : 0.4943561926
        },
        "meters" : {
          "estimated_diameter_min" : 221.0828103591,
          "estimated_diameter_max" : 494.3561926196
        },
        "miles" : {
          "estimated_diameter_min" : 0.137374447,
          "estimated_diameter_max" : 0.3071786018
        },
        "feet" : {
          "estimated_diameter_min" : 725.3373275385,
          "estimated_diameter_max" : 1621.9035709942
        }
      },
      "is_potentially_hazardous_asteroid" : false,
      "close_approach_data" : [ {
        "close_approach_date" : "1996-06-22",
        "epoch_date_close_approach" : 835426800000,
        "relative_velocity" : {
          "kilometers_per_second" : "10.203131584",
          "kilometers_per_hour" : "36731.2737025058",
          "miles_per_hour" : "22823.3850403154"
        },
        "miss_distance" : {
          "astronomical" : "0.0856248018",
          "lunar" : "33.3080482483",
          "kilometers" : "12809288",
          "miles" : "7959322.5"
        },
        "orbiting_body" : "Earth"
      } ],
      "orbital_data" : {
        "orbit_id" : "54",
        "orbit_determination_date" : "2016-08-01 07:47:53",
        "orbit_uncertainty" : "0",
        "minimum_orbit_intersection" : ".0538301",
        "jupiter_tisserand_invariant" : "7.351",
        "epoch_osculation" : "2457600.5",
        "eccentricity" : ".4834429433842949",
        "semi_major_axis" : ".7792537736381295",
        "inclination" : "6.059105248565197",
        "ascending_node_longitude" : "114.4535882317424",
        "orbital_period" : "251.2562062352404",
        "perihelion_distance" : ".4025290356671931",
        "perihelion_argument" : ".7517608573124086",
        "aphelion_distance" : "1.155978511609066",
        "perihelion_time" : "2457707.604409445406",
        "mean_anomaly" : "206.5407562341112",
        "mean_motion" : "1.432800428670596",
        "equinox" : "J2000"
      }
    }, {
      "links" : {
        "self" : "https://api.nasa.gov/neo/rest/v1/neo/3550466?api_key=t0TVs3DtDT2H8Oy2Zy8m2eVrNsAVKAexjcZXUckd"
      },
      "neo_reference_id" : "3550466",
      "name" : "(2010 VZ11)",
      "nasa_jpl_url" : "http://ssd.jpl.nasa.gov/sbdb.cgi?sstr=3550466",
      "absolute_magnitude_h" : 25.6,
      "estimated_diameter" : {
        "kilometers" : {
          "estimated_diameter_min" : 0.0201629919,
          "estimated_diameter_max" : 0.0450858206
        },
        "meters" : {
          "estimated_diameter_min" : 20.1629919443,
          "estimated_diameter_max" : 45.0858206172
        },
        "miles" : {
          "estimated_diameter_min" : 0.0125286985,
          "estimated_diameter_max" : 0.0280150214
        },
        "feet" : {
          "estimated_diameter_min" : 66.1515504905,
          "estimated_diameter_max" : 147.9193637137
        }
      },
      "is_potentially_hazardous_asteroid" : false,
      "close_approach_data" : [ {
        "close_approach_date" : "1996-06-22",
        "epoch_date_close_approach" : 835426800000,
        "relative_velocity" : {
          "kilometers_per_second" : "4.8001764695",
          "kilometers_per_hour" : "17280.6352901209",
          "miles_per_hour" : "10737.5147445754"
        },
        "miss_distance" : {
          "astronomical" : "0.0598653879",
          "lunar" : "23.2876358032",
          "kilometers" : "8955735",
          "miles" : "5564835.5"
        },
        "orbiting_body" : "Earth"
      } ],
      "orbital_data" : {
        "orbit_id" : "20",
        "orbit_determination_date" : "2017-04-06 08:55:55",
        "orbit_uncertainty" : "6",
        "minimum_orbit_intersection" : ".00457185",
        "jupiter_tisserand_invariant" : "5.618",
        "epoch_osculation" : "2458000.5",
        "eccentricity" : ".1540091835078942",
        "semi_major_axis" : "1.104707617137189",
        "inclination" : "4.63588385583856",
        "ascending_node_longitude" : "42.44095250589056",
        "orbital_period" : "424.1011496017098",
        "perihelion_distance" : ".9345724990069396",
        "perihelion_argument" : "300.6622421687256",
        "aphelion_distance" : "1.274842735267439",
        "perihelion_time" : "2457995.830018288288",
        "mean_anomaly" : "3.964133126720531",
        "mean_motion" : ".8488541008155489",
        "equinox" : "J2000"
      }
    } ]
  }
}